SALSAT                  
1 46495U 20068K   22230.47703800  .00001560  00000+0  11486-3 0  9996
2 46495  97.7308 171.8131 0018064  69.3851 290.9310 15.04722748103511
